start=new Date('2022-06-24T00:00:00.000Z').valueOf();
sats=[{"CLASSIFICATION_TYPE":"U","COUNTRY_CODE":"US","FILE":"3500539","BSTAR":"0.00004267900000","REV_AT_EPOCH":"3109","OBJECT_TYPE":"PAYLOAD","MEAN_ANOMALY":"304.3538","MEAN_MOTION_DDOT":"0.0000000000000","PERIAPSIS":"538.079","APOAPSIS":"541.404","NORAD_CAT_ID":"49765","ECCENTRICITY":"0.00024030","REF_FRAME":"TEME","SEMIMAJOR_AXIS":"6917.876","TIME_SYSTEM":"UTC","DECAY_DATE":null,"OBJECT_NAME":"STARLINK-3227","TLE_LINE1":"1 49765U 21115AT  22174.49984820  .00000391  00000-0  42679-4 0  9996","TLE_LINE2":"2 49765  53.2198 102.8023 0002403  55.7681 304.3538 15.08841344 31095","LAUNCH_DATE":"2021-12-02","ELEMENT_SET_NO":"999","EPHEMERIS_TYPE":"0","CENTER_NAME":"EARTH","GP_ID":"206687644","OBJECT_ID":"2021-115AT","ARG_OF_PERICENTER":"55.7681","MEAN_MOTION":"15.08841344","SITE":"AFETR","MEAN_MOTION_DOT":"0.00000391","INCLINATION":"53.2198","PERIOD":"95.437","RA_OF_ASC_NODE":"102.8023","MEAN_ELEMENT_THEORY":"SGP4","EPOCH":"2022-06-23T11:59:46.884480","RCS_SIZE":"LARGE"},{"SEMIMAJOR_AXIS":"6917.891","REF_FRAME":"TEME","ECCENTRICITY":"0.00026030","NORAD_CAT_ID":"49766","TIME_SYSTEM":"UTC","COUNTRY_CODE":"US","CLASSIFICATION_TYPE":"U","BSTAR":"0.00007741700000","REV_AT_EPOCH":"3205","FILE":"3500517","MEAN_ANOMALY":"315.0130","OBJECT_TYPE":"PAYLOAD","PERIAPSIS":"537.955","MEAN_MOTION_DDOT":"0.0000000000000","APOAPSIS":"541.557","MEAN_MOTION_DOT":"0.00000944","RA_OF_ASC_NODE":"107.2077","INCLINATION":"53.2195","PERIOD":"95.438","RCS_SIZE":"LARGE","EPOCH":"2022-06-22T12:30:11.589408","MEAN_ELEMENT_THEORY":"SGP4","OBJECT_NAME":"STARLINK-3190","TLE_LINE1":"1 49766U 21115AU  22173.52096747  .00000944  00000-0  77417-4 0  9994","DECAY_DATE":null,"TLE_LINE2":"2 49766  53.2195 107.2077 0002603  45.1073 315.0130 15.08836491 32052","ELEMENT_SET_NO":"999","EPHEMERIS_TYPE":"0","CENTER_NAME":"EARTH","LAUNCH_DATE":"2021-12-02","SITE":"AFETR","MEAN_MOTION":"15.08836491","GP_ID":"206662766","ARG_OF_PERICENTER":"45.1073","OBJECT_ID":"2021-115AU"},{"ARG_OF_PERICENTER":"57.7253","GP_ID":"206686143","OBJECT_ID":"2021-115AV","MEAN_MOTION":"15.08836176","SITE":"AFETR","LAUNCH_DATE":"2021-12-02","ELEMENT_SET_NO":"999","EPHEMERIS_TYPE":"0","CENTER_NAME":"EARTH","TLE_LINE2":"2 49767  53.2193 102.7826 0002434  57.7253 302.3975 15.08836176 31093","DECAY_DATE":null,"OBJECT_NAME":"STARLINK-3192","TLE_LINE1":"1 49767U 21115AV  22174.50721213  .00001979  00000-0  14244-3 0  9994","MEAN_ELEMENT_THEORY":"SGP4","EPOCH":"2022-06-23T12:10:23.128032","RCS_SIZE":"LARGE","INCLINATION":"53.2193","PERIOD":"95.438","RA_OF_ASC_NODE":"102.7826","MEAN_MOTION_DOT":"0.00001979","PERIAPSIS":"538.073","MEAN_MOTION_DDOT":"0.0000000000000","APOAPSIS":"541.441","MEAN_ANOMALY":"302.3975","OBJECT_TYPE":"PAYLOAD","FILE":"3500539","BSTAR":"0.00014244000000","REV_AT_EPOCH":"3109","CLASSIFICATION_TYPE":"U","COUNTRY_CODE":"US","TIME_SYSTEM":"UTC","NORAD_CAT_ID":"49767","ECCENTRICITY":"0.00024340","SEMIMAJOR_AXIS":"6917.892","REF_FRAME":"TEME"},{"TIME_SYSTEM":"UTC","ECCENTRICITY":"0.00020300","NORAD_CAT_ID":"49768","SEMIMAJOR_AXIS":"6917.857","REF_FRAME":"TEME","APOAPSIS":"541.126","PERIAPSIS":"538.318","MEAN_MOTION_DDOT":"0.0000000000000","MEAN_ANOMALY":"300.0187","OBJECT_TYPE":"PAYLOAD","FILE":"3500539","REV_AT_EPOCH":"3109","BSTAR":"0.00015369000000","CLASSIFICATION_TYPE":"U","COUNTRY_CODE":"US","MEAN_ELEMENT_THEORY":"SGP4","RCS_SIZE":"LARGE","EPOCH":"2022-06-23T12:31:34.035744","PERIOD":"95.437","INCLINATION":"53.2179","RA_OF_ASC_NODE":"102.7105","MEAN_MOTION_DOT":"0.00002159","OBJECT_ID":"2021-115AW","GP_ID":"206687394","ARG_OF_PERICENTER":"60.1006","SITE":"AFETR","MEAN_MOTION":"15.08847618","LAUNCH_DATE":"2021-12-02","EPHEMERIS_TYPE":"0","CENTER_NAME":"EARTH","ELEMENT_SET_NO":"999","TLE_LINE2":"2 49768  53.2179 102.7105 0002030  60.1006 300.0187 15.08847618 31097","DECAY_DATE":null,"TLE_LINE1":"1 49768U 21115AW  22174.52192171  .00002159  00000-0  15369-3 0  9992","OBJECT_NAME":"STARLINK-3196"},{"CLASSIFICATION_TYPE":"U","COUNTRY_CODE":"US","FILE":"3500539","BSTAR":"-0.00001500200000","REV_AT_EPOCH":"3109","MEAN_ANOMALY":"302.6238","OBJECT_TYPE":"PAYLOAD","MEAN_MOTION_DDOT":"0.0000000000000","PERIAPSIS":"537.721","APOAPSIS":"541.757","NORAD_CAT_ID":"49769","ECCENTRICITY":"0.00029170","REF_FRAME":"TEME","SEMIMAJOR_AXIS":"6917.874","TIME_SYSTEM":"UTC","DECAY_DATE":null,"OBJECT_NAME":"STARLINK-3208","TLE_LINE1":"1 49769U 21115AX  22174.51825145 -.00000527  00000-0 -15002-4 0  9990","TLE_LINE2":"2 49769  53.2182 102.7344 0002917  57.5035 302.6238 15.08841991 31096","LAUNCH_DATE":"2021-12-02","ELEMENT_SET_NO":"999","EPHEMERIS_TYPE":"0","CENTER_NAME":"EARTH","ARG_OF_PERICENTER":"57.5035","GP_ID":"206687145","OBJECT_ID":"2021-115AX","MEAN_MOTION":"15.08841991","SITE":"AFETR","MEAN_MOTION_DOT":"-0.00000527","INCLINATION":"53.2182","PERIOD":"95.437","RA_OF_ASC_NODE":"102.7344","MEAN_ELEMENT_THEORY":"SGP4","EPOCH":"2022-06-23T12:26:16.925280","RCS_SIZE":"LARGE"},{"CLASSIFICATION_TYPE":"U","COUNTRY_CODE":"US","FILE":"3500769","BSTAR":"-0.00001431200000","REV_AT_EPOCH":"3215","OBJECT_TYPE":"PAYLOAD","MEAN_ANOMALY":"311.1576","PERIAPSIS":"537.848","MEAN_MOTION_DDOT":"0.0000000000000","APOAPSIS":"541.681","ECCENTRICITY":"0.00027700","NORAD_CAT_ID":"49770","SEMIMAJOR_AXIS":"6917.900","REF_FRAME":"TEME","TIME_SYSTEM":"UTC","DECAY_DATE":null,"OBJECT_NAME":"STARLINK-3191","TLE_LINE1":"1 49770U 21115AY  22174.19441396 -.00000516  00000-0 -14312-4 0  9999","TLE_LINE2":"2 49770  53.2189 104.1889 0002770  48.9655 311.1576 15.08833676 32153","LAUNCH_DATE":"2021-12-02","ELEMENT_SET_NO":"999","CENTER_NAME":"EARTH","EPHEMERIS_TYPE":"0","GP_ID":"206693708","OBJECT_ID":"2021-115AY","ARG_OF_PERICENTER":"48.9655","SITE":"AFETR","MEAN_MOTION":"15.08833676","MEAN_MOTION_DOT":"-0.00000516","INCLINATION":"53.2189","PERIOD":"95.438","RA_OF_ASC_NODE":"104.1889","MEAN_ELEMENT_THEORY":"SGP4","RCS_SIZE":"LARGE","EPOCH":"2022-06-23T04:39:57.366144"},{"RA_OF_ASC_NODE":"101.4854","PERIOD":"95.437","INCLINATION":"53.2168","RCS_SIZE":"LARGE","EPOCH":"2022-06-23T19:03:42.684192","MEAN_ELEMENT_THEORY":"SGP4","MEAN_MOTION_DOT":"0.00002108","EPHEMERIS_TYPE":"0","CENTER_NAME":"EARTH","ELEMENT_SET_NO":"999","LAUNCH_DATE":"2021-12-02","MEAN_MOTION":"15.08843230","SITE":"AFETR","GP_ID":"206693230","OBJECT_ID":"2021-115AZ","ARG_OF_PERICENTER":"59.3934","TLE_LINE1":"1 49771U 21115AZ  22174.79424403  .00002108  00000-0  15050-3 0  9992","OBJECT_NAME":"STARLINK-3201","DECAY_DATE":null,"TLE_LINE2":"2 49771  53.2168 101.4854 0002253  59.3934 300.7280 15.08843230 32248","SEMIMAJOR_AXIS":"6917.871","REF_FRAME":"TEME","ECCENTRICITY":"0.00022530","NORAD_CAT_ID":"49771","TIME_SYSTEM":"UTC","OBJECT_TYPE":"PAYLOAD","MEAN_ANOMALY":"300.7280","APOAPSIS":"541.294","MEAN_MOTION_DDOT":"0.0000000000000","PERIAPSIS":"538.177","COUNTRY_CODE":"US","CLASSIFICATION_TYPE":"U","REV_AT_EPOCH":"3224","BSTAR":"0.00015050000000","FILE":"3500769"},{"EPHEMERIS_TYPE":"0","CENTER_NAME":"EARTH","ELEMENT_SET_NO":"999","LAUNCH_DATE":"2021-12-18","SITE":"AFWTR","MEAN_MOTION":"15.08832042","GP_ID":"206687169","OBJECT_ID":"2021-125A","ARG_OF_PERICENTER":"32.6340","TLE_LINE1":"1 50156U 21125A   22174.47965852  .00000079  00000-0  23113-4 0  9990","OBJECT_NAME":"STARLINK-3317","DECAY_DATE":null,"TLE_LINE2":"2 50156  53.2173 212.8916 0002490  32.6340 327.4805 15.08832042 32043","RA_OF_ASC_NODE":"212.8916","PERIOD":"95.438","INCLINATION":"53.2173","RCS_SIZE":"LARGE","EPOCH":"2022-06-23T11:30:42.496128","MEAN_ELEMENT_THEORY":"SGP4","MEAN_MOTION_DOT":"0.00000079","OBJECT_TYPE":"PAYLOAD","MEAN_ANOMALY":"327.4805","APOAPSIS":"541.492","MEAN_MOTION_DDOT":"0.0000000000000","PERIAPSIS":"538.047","COUNTRY_CODE":"US","CLASSIFICATION_TYPE":"U","REV_AT_EPOCH":"3204","BSTAR":"0.00002311300000","FILE":"3500539","SEMIMAJOR_AXIS":"6917.905","REF_FRAME":"TEME","ECCENTRICITY":"0.00024900","NORAD_CAT_ID":"50156","TIME_SYSTEM":"UTC"},{"MEAN_ELEMENT_THEORY":"SGP4","RCS_SIZE":"LARGE","EPOCH":"2022-06-23T10:29:42.153216","PERIOD":"95.438","INCLINATION":"53.2142","RA_OF_ASC_NODE":"223.0934","MEAN_MOTION_DOT":"0.00001546","GP_ID":"206686417","ARG_OF_PERICENTER":"29.9015","OBJECT_ID":"2021-125B","MEAN_MOTION":"15.08830917","SITE":"AFWTR","LAUNCH_DATE":"2021-12-18","CENTER_NAME":"EARTH","EPHEMERIS_TYPE":"0","ELEMENT_SET_NO":"999","TLE_LINE2":"2 50157  53.2142 223.0934 0002502  29.9015 330.2119 15.08830917 31909","DECAY_DATE":null,"TLE_LINE1":"1 50157U 21125B   22174.43729344  .00001546  00000-0  11523-3 0  9992","OBJECT_NAME":"STARLINK-3313","TIME_SYSTEM":"UTC","NORAD_CAT_ID":"50157","ECCENTRICITY":"0.00025020","REF_FRAME":"TEME","SEMIMAJOR_AXIS":"6917.908","APOAPSIS":"541.504","MEAN_MOTION_DDOT":"0.0000000000000","PERIAPSIS":"538.042","MEAN_ANOMALY":"330.2119","OBJECT_TYPE":"PAYLOAD","FILE":"3500539","REV_AT_EPOCH":"3190","BSTAR":"0.00011523000000","CLASSIFICATION_TYPE":"U","COUNTRY_CODE":"US"},{"MEAN_MOTION_DOT":"-0.00000610","MEAN_ELEMENT_THEORY":"SGP4","RCS_SIZE":"LARGE","EPOCH":"2022-06-23T10:13:48.809568","PERIOD":"95.438","INCLINATION":"53.2163","RA_OF_ASC_NODE":"223.1473","TLE_LINE2":"2 50158  53.2163 223.1473 0002570  31.9284 328.1863 15.08835145 31920","DECAY_DATE":null,"TLE_LINE1":"1 50158U 21125C   22174.42625937 -.00000610  00000-0 -20195-4 0  9994","OBJECT_NAME":"STARLINK-3309","ARG_OF_PERICENTER":"31.9284","GP_ID":"206686667","OBJECT_ID":"2021-125C","MEAN_MOTION":"15.08835145","SITE":"AFWTR","LAUNCH_DATE":"2021-12-18","CENTER_NAME":"EARTH","EPHEMERIS_TYPE":"0","ELEMENT_SET_NO":"999","TIME_SYSTEM":"UTC","ECCENTRICITY":"0.00025700","NORAD_CAT_ID":"50158","SEMIMAJOR_AXIS":"6917.895","REF_FRAME":"TEME","FILE":"3500539","REV_AT_EPOCH":"3192","BSTAR":"-0.00002019500000","CLASSIFICATION_TYPE":"U","COUNTRY_CODE":"US","APOAPSIS":"541.538","MEAN_MOTION_DDOT":"0.0000000000000","PERIAPSIS":"537.982","MEAN_ANOMALY":"328.1863","OBJECT_TYPE":"PAYLOAD"}];
